OBJECT_NAME,OBJECT_ID,EPOCH,MEAN_MOTION,ECCENTRICITY,INCLINATION,RA_OF_ASC_NODE,ARG_OF_PERICENTER,MEAN_ANOMALY,EPHEMERIS_TYPE,CLASSIFICATION_TYPE,NORAD_CAT_ID,ELEMENT_SET_NO,REV_AT_EPOCH,BSTAR,MEAN_MOTION_DOT,MEAN_MOTION_DDOT
2023-091J,2023-091J,2026-05-20T22:55:33.225024,15.13718027,.00119329,97.5070,194.4414,237.5969,122.4109,0,U,57174,999,15951,.14582514E-3,.2564E-4,0
CUBEBEL 2 (EU11S),2023-091K,2026-05-20T22:55:44.403456,15.28433363,.00096651,97.5059,203.9420,201.9446,158.1381,0,U,57175,999,16014,.29182186E-3,.8012E-4,0
SITRO-AIS 5 (KATYS),2023-091L,2026-05-20T21:54:00.423360,15.28749548,.00114964,97.5068,204.5649,190.6400,169.4598,0,U,57176,999,16017,.3058973E-3,.8489E-4,0
ZORKIY-2M 1,2023-091M,2026-05-20T21:42:28.025856,15.20501181,.00128404,97.5102,199.9621,204.9005,155.1612,0,U,57177,999,15985,.21953862E-3,.4737E-4,0
CUBESX-HSE 3 (RS42S),2023-091N,2026-05-20T21:59:22.924320,15.30439091,.00111871,97.5099,206.1729,180.6881,179.4346,0,U,57178,999,16025,.31624819E-3,.9249E-4,0
MONITOR-3 (RS58S),2023-091Q,2026-05-20T21:09:57.453408,15.27221565,.00117795,97.5091,204.1382,188.1675,171.9374,0,U,57180,999,16012,.26238937E-3,.6938E-4,0
MONITOR-4 (RS57S),2023-091S,2026-05-20T22:16:34.266432,15.27320357,.00117942,97.5086,204.1543,188.3307,171.7738,0,U,57182,999,16013,.28633675E-3,.7601E-4,0
MONITOR-2 (RS39S),2023-091U,2026-05-20T21:42:39.794400,15.18622587,.0010777,97.5084,199.3671,199.4591,160.6233,0,U,57184,999,15981,.17557321E-3,.357E-4,0
SVYATOBOR 1 (RS60S),2023-091X,2026-05-20T22:02:40.648128,15.26089031,.00097496,97.5098,204.5935,178.7425,181.3840,0,U,57187,999,16015,.24842673E-3,.6338E-4,0
HORS 1,2023-091Y,2026-05-20T21:44:27.272544,15.26187781,.00092181,97.5076,204.3468,178.0946,182.0329,0,U,57188,999,16015,.24336331E-3,.6225E-4,0
VIZARD-METEO (RS38S),2023-091Z,2026-05-20T21:48:10.873152,15.35055119,.00083809,97.5098,209.8654,159.1984,200.9602,0,U,57189,999,16050,.31666146E-3,.10703E-3,0
SITRO-AIS 6 (CHIRKIN),2023-091AC,2026-05-20T23:03:32.982624,15.25350808,.00116407,97.5076,203.8744,193.8382,166.2538,0,U,57192,999,16013,.2621467E-3,.6549E-4,0
SITRO-AIS 8 (ANOKHIN),2023-091AD,2026-05-20T21:51:32.722560,15.31305211,.00108207,97.5065,206.0438,186.1547,173.9562,0,U,57193,999,16027,.32176797E-3,.9668E-4,0
SITRO-AIS 7 (FARTUSHNIY),2023-091AE,2026-05-20T23:00:13.876416,15.25052095,.00114455,97.5074,203.7109,194.8602,165.2301,0,U,57194,999,16012,.25537895E-3,.632E-4,0
AVION KALUGA 650,2023-091AF,2026-05-20T21:52:22.914912,15.20023502,.00100268,97.5101,200.6024,196.5842,163.5066,0,U,57195,999,15988,.18850681E-3,.3997E-4,0
HORS 2,2023-091AG,2026-05-20T22:02:46.492224,15.31113384,.00088336,97.5096,207.5908,170.0396,190.1022,0,U,57196,999,16035,.31566694E-3,.9421E-4,0
A-SEANSAT-PG1,2023-091AH,2026-05-20T22:01:57.387648,15.35901967,.00081814,97.5087,209.9379,165.9507,194.1965,0,U,57197,999,16052,.35718737E-3,.12417E-3,0
SITRO-AIS 10 (BURDAEV),2023-091AK,2026-05-20T22:10:50.232000,15.37461237,.0007741,97.5086,210.8371,160.2453,199.9092,0,U,57199,999,16057,.36616068E-3,.13387E-3,0
SITRO-AIS 9 (SHCHUKIN),2023-091AM,2026-05-20T22:36:49.845312,15.37004819,.00079492,97.5085,210.6063,160.5688,199.5861,0,U,57201,999,16056,.37278163E-3,.13432E-3,0
UTMN 2 (RS27S),2023-091AP,2026-05-20T22:46:28.778016,15.31300231,.00088229,97.5095,207.8063,165.7324,194.4167,0,U,57203,999,16037,.30147025E-3,.9046E-4,0
SITRO-AIS 12 (SMIRENNIY),2023-091AQ,2026-05-20T22:30:39.877920,15.37291007,.00077108,97.5097,211.0521,155.1875,204.9741,0,U,57204,999,16058,.3751048E-3,.13641E-3,0
SITRO-AIS 11 (SHEFFER),2023-091AU,2026-05-20T23:00:29.622816,15.37688962,.00076182,97.5096,211.3033,155.0312,205.1302,0,U,57208,999,16060,.36969307E-3,.13617E-3,0
H2SAT (HEINRICH HERTZ),2023-093A,2026-05-20T20:23:38.799168,1.00269896,.00008284,0.0057,242.4159,218.3254,84.3597,0,U,57213,999,1064,0,-.5E-7,0
KUZGTU 1 (RS47S),2023-091AV,2026-05-20T22:46:55.670016,15.29156845,.00112197,97.5072,205.1645,184.4029,175.7114,0,U,57217,999,16021,.29147637E-3,.8186E-4,0
QIANKUN-1,2023-103B,2026-05-20T12:50:46.486464,16.07634173,.00241641,96.1599,187.2982,130.8868,229.4516,0,U,57422,999,16285,.22245888E-4,.17989E-3,.1800544E-5
FENGYUN 3F,2023-111A,2026-05-20T23:39:47.253312,14.19933709,.00013805,98.6841,211.4999,111.8198,248.3125,0,U,57490,999,14500,.28237349E-4,.17E-6,0
HJ-2F,2023-116A,2026-05-20T23:17:02.057280,15.21886089,.001027,97.3851,146.6724,129.8169,230.3973,0,U,57519,999,15461,.23916963E-3,.5381E-4,0
XRISM,2023-137A,2026-05-20T19:12:38.823840,15.12201067,.0007564,31.0008,176.9675,47.3466,312.7809,0,U,57800,999,14871,.12958869E-3,.2391E-4,0
METEOR-M2 4,2024-039A,2026-05-20T23:03:53.671968,14.22426397,.00059641,98.6997,100.6041,245.5593,114.4963,0,U,59051,999,11539,.23081241E-4,.8E-7,0
