2023-091J               
1 57174U 23091J   26140.95524566  .00002564  00000+0  14583-3 0  9994
2 57174  97.5070 194.4414 0011932 237.5969 122.4109 15.13718027159513
CUBEBEL 2 (EU11S)       
1 57175U 23091K   26140.95537504  .00008012  00000+0  29182-3 0  9996
2 57175  97.5059 203.9420 0009665 201.9446 158.1381 15.28433363160141
SITRO-AIS 5 (KATYS)     
1 57176U 23091L   26140.91250490  .00008489  00000+0  30590-3 0  9992
2 57176  97.5068 204.5649 0011496 190.6400 169.4598 15.28749548160174
ZORKIY-2M 1             
1 57177U 23091M   26140.90449104  .00004737  00000+0  21954-3 0  9990
2 57177  97.5102 199.9621 0012840 204.9005 155.1612 15.20501181159858
CUBESX-HSE 3 (RS42S)    
1 57178U 23091N   26140.91623755  .00009249  00000+0  31625-3 0  9997
2 57178  97.5099 206.1729 0011187 180.6881 179.4346 15.30439091160259
MONITOR-3 (RS58S)       
1 57180U 23091Q   26140.88191497  .00006938  00000+0  26239-3 0  9996
2 57180  97.5091 204.1382 0011779 188.1675 171.9374 15.27221565160123
MONITOR-4 (RS57S)       
1 57182U 23091S   26140.92817438  .00007601  00000+0  28634-3 0  9992
2 57182  97.5086 204.1543 0011794 188.3307 171.7738 15.27320357160131
MONITOR-2 (RS39S)       
1 57184U 23091U   26140.90462725  .00003570  00000+0  17557-3 0  9990
2 57184  97.5084 199.3671 0010777 199.4591 160.6233 15.18622587159816
SVYATOBOR 1 (RS60S)     
1 57187U 23091X   26140.91852602  .00006338  00000+0  24843-3 0  9992
2 57187  97.5098 204.5935 0009749 178.7425 181.3840 15.26089031160152
HORS 1                  
1 57188U 23091Y   26140.90587121  .00006225  00000+0  24336-3 0  9995
2 57188  97.5076 204.3468 0009218 178.0946 182.0329 15.26187781160151
VIZARD-METEO (RS38S)    
1 57189U 23091Z   26140.90845918  .00010703  00000+0  31666-3 0  9997
2 57189  97.5098 209.8654 0008380 159.1984 200.9602 15.35055119160506
SITRO-AIS 6 (CHIRKIN)   
1 57192U 23091AC  26140.96079841  .00006549  00000+0  26215-3 0  9998
2 57192  97.5076 203.8744 0011640 193.8382 166.2538 15.25350808160133
SITRO-AIS 8 (ANOKHIN)   
1 57193U 23091AD  26140.91079540  .00009668  00000+0  32177-3 0  9999
2 57193  97.5065 206.0438 0010820 186.1547 173.9562 15.31305211160276
SITRO-AIS 7 (FARTUSHNIY)
1 57194U 23091AE  26140.95849394  .00006320  00000+0  25538-3 0  9991
2 57194  97.5074 203.7109 0011445 194.8602 165.2301 15.25052095160129
AVION KALUGA 650        
1 57195U 23091AF  26140.91137633  .00003997  00000+0  18851-3 0  9991
2 57195  97.5101 200.6024 0010026 196.5842 163.5066 15.20023502159888
HORS 2                  
1 57196U 23091AG  26140.91859366  .00009421  00000+0  31567-3 0  9993
2 57196  97.5096 207.5908 0008833 170.0396 190.1022 15.31113384160355
A-SEANSAT-PG1           
1 57197U 23091AH  26140.91802532  .00012417  00000+0  35719-3 0  9999
2 57197  97.5087 209.9379 0008181 165.9507 194.1965 15.35901967160522
SITRO-AIS 10 (BURDAEV)  
1 57199U 23091AK  26140.92419250  .00013387  00000+0  36616-3 0  9997
2 57199  97.5086 210.8371 0007741 160.2453 199.9092 15.37461237160577
SITRO-AIS 9 (SHCHUKIN)  
1 57201U 23091AM  26140.94224358  .00013432  00000+0  37278-3 0  9992
2 57201  97.5085 210.6063 0007949 160.5688 199.5861 15.37004819160567
UTMN 2 (RS27S)          
1 57203U 23091AP  26140.94894419  .00009046  00000+0  30147-3 0  9999
2 57203  97.5095 207.8063 0008822 165.7324 194.4167 15.31300231160376
SITRO-AIS 12 (SMIRENNIY)
1 57204U 23091AQ  26140.93796155  .00013641  00000+0  37510-3 0  9994
2 57204  97.5097 211.0521 0007710 155.1875 204.9741 15.37291007160588
SITRO-AIS 11 (SHEFFER)  
1 57208U 23091AU  26140.95867619  .00013617  00000+0  36969-3 0  9994
2 57208  97.5096 211.3033 0007618 155.0312 205.1302 15.37688962160603
H2SAT (HEINRICH HERTZ)  
1 57213U 23093A   26140.84975462 -.00000005  00000+0  00000+0 0  9997
2 57213   0.0057 242.4159 0000828 218.3254  84.3597  1.00269896 10640
KUZGTU 1 (RS47S)        
1 57217U 23091AV  26140.94925544  .00008186  00000+0  29148-3 0  9991
2 57217  97.5072 205.1645 0011219 184.4029 175.7114 15.29156845160211
QIANKUN-1               
1 57422U 23103B   26140.53526026  .00017989  18005-5  22246-4 0  9994
2 57422  96.1599 187.2982 0024164 130.8868 229.4516 16.07634173162858
FENGYUN 3F              
1 57490U 23111A   26140.98596358  .00000017  00000+0  28237-4 0  9992
2 57490  98.6841 211.4999 0001380 111.8198 248.3125 14.19933709145000
HJ-2F                   
1 57519U 23116A   26140.97016270  .00005381  00000+0  23917-3 0  9996
2 57519  97.3851 146.6724 0010270 129.8169 230.3973 15.21886089154610
XRISM                   
1 57800U 23137A   26140.80044935  .00002391  00000+0  12959-3 0  9995
2 57800  31.0008 176.9675 0007564  47.3466 312.7809 15.12201067148713
METEOR-M2 4             
1 59051U 24039A   26140.96103787  .00000008  00000+0  23081-4 0  9997
2 59051  98.6997 100.6041 0005964 245.5593 114.4963 14.22426397115396
